BEIDOU-2 IGSO-1 (C06)   
1 36828U 10036A   25239.77615218 -.00000120  00000+0  00000+0 0  9997
2 36828  54.2796 165.6193 0048476 216.9045 338.9648  1.00256469 55159
BEIDOU-2 G4 (C04)       
1 37210U 10057A   25241.27328817 -.00000109  00000+0  00000+0 0  9997
2 37210   2.9170  70.2829 0007093 167.0938 358.7993  1.00272737 54366
BEIDOU-2 IGSO-2 (C07)   
1 37256U 10068A   25237.55086240 -.00000179  00000+0  00000+0 0  9993
2 37256  48.0796 275.4934 0048600 216.0065 148.5250  1.00267349 53837
BEIDOU-2 IGSO-3 (C08)   
1 37384U 11013A   25240.89850352 -.00000156  00000+0  00000+0 0  9995
2 37384  62.0000  42.9209 0036089 178.8668 183.8517  1.00297070 52737
BEIDOU-2 IGSO-4 (C09)   
1 37763U 11038A   25240.80317975 -.00000084  00000+0  00000+0 0  9993
2 37763  54.5815 168.2984 0144643 230.9056 321.3708  1.00263387 51719
BEIDOU-2 IGSO-5 (C10)   
1 37948U 11073A   25240.82588304 -.00000136  00000+0  00000+0 0  9993
2 37948  48.2118 275.1601 0110303 221.3906 234.2135  1.00271455 50202
BEIDOU-2 G5 (C05)       
1 38091U 12008A   25241.08336241  .00000059  00000+0  00000+0 0  9995
2 38091   2.8402  71.0793 0005948 236.4046 118.7380  1.00272708 49432
BEIDOU-2 M3 (C11)       
1 38250U 12018A   25241.08369096 -.00000083  00000+0  00000+0 0  9995
2 38250  56.0057 314.7096 0023478 266.1899  93.6053  1.86233808 90507
BEIDOU-2 M4 (C12)       
1 38251U 12018B   25239.94251637 -.00000086  00000+0  00000+0 0  9992
2 38251  55.9093 313.9857 0014443 265.4871  94.4126  1.86232175 90489
BEIDOU-2 M6 (C14)       
1 38775U 12050B   25240.19012950 -.00000036  00000+0  00000+0 0  9996
2 38775  56.2834  72.6003 0011613 357.4494   2.6022  1.86231174 87859
BEIDOU-2 G6 (C02)       
1 38953U 12059A   25241.11548925 -.00000174  00000+0  00000+0 0  9995
2 38953   3.6743  76.5862 0007194 319.5469  66.9979  1.00274845 46989
BEIDOU-3S IGSO-1S (C31) 
1 40549U 15019A   25240.62753269 -.00000152  00000+0  00000+0 0  9998
2 40549  49.7488 298.9877 0041151 195.6124 162.0518  1.00262607 38136
BEIDOU-3S M2S (C58)     
1 40748U 15037A   25241.22056345 -.00000079  00000+0  00000+0 0  9995
2 40748  55.1278 312.0867 0011750 252.2962 107.6401  1.86229350 68685
BEIDOU-3S M1S (C57)     
1 40749U 15037B   25238.78028726 -.00000085  00000+0  00000+0 0  9992
2 40749  55.1265 312.1613 0002326   3.1821 356.8856  1.86254066 68648
BEIDOU-3S IGSO-2S (C56) 
1 40938U 15053A   25241.04546229 -.00000083  00000+0  00000+0 0  9994
2 40938  49.6762 262.2550 0062160 189.5115 355.1077  1.00294480 36428
BEIDOU-2 IGSO-6 (C13)   
1 41434U 16021A   25240.90384179 -.00000140  00000+0  00000+0 0  9994
2 41434  59.8184  40.9540 0055782 227.4478 130.1774  1.00274306 34548
BEIDOU-2 G7 (C03)       
1 41586U 16037A   25240.97794211 -.00000351  00000+0  00000+0 0  9992
2 41586   1.9384  69.5005 0008262  10.6355 359.8217  1.00267262  3963
BEIDOU-3 M1 (C19)       
1 43001U 17069A   25241.02961043 -.00000032  00000+0  00000+0 0  9994
2 43001  56.4333  72.7258 0007555 319.3560  40.6446  1.86231557 53161
BEIDOU-3 M2 (C20)       
1 43002U 17069B   25238.28301545 -.00000034  00000+0  00000+0 0  9996
2 43002  56.4296  72.8525 0006597 355.7597   4.2975  1.86230990 53104
BEIDOU-3 M7 (C27)       
1 43107U 18003A   25240.17533409 -.00000084  00000+0  00000+0 0  9993
2 43107  54.5871 312.5209 0003171  98.0028 262.0975  1.86232691 51890
BEIDOU-3 M8 (C28)       
1 43108U 18003B   25237.97156051 -.00000086  00000+0  00000+0 0  9994
2 43108  54.5818 312.5808 0004334 253.4752 106.5432  1.86231083 51861
BEIDOU-3 M4 (C22)       
1 43207U 18018A   25238.95002281 -.00000036  00000+0  00000+0 0  9999
2 43207  56.3900  72.8683 0006120  33.8855 326.2144  1.86231457 51269
BEIDOU-3 M3 (C21)       
1 43208U 18018B   25239.01660017 -.00000036  00000+0  00000+0 0  9995
2 43208  56.3896  72.8702 0005978 342.1588  17.8807  1.86231408 51260
BEIDOU-3 M9 (C29)       
1 43245U 18029A   25240.30724631 -.00000080  00000+0  00000+0 0  9994
2 43245  54.4581 310.1802 0001773 225.1944 134.8569  1.86233027 50448
BEIDOU-3 M10 (C30)      
1 43246U 18029B   25237.55652881 -.00000081  00000+0  00000+0 0  9996
2 43246  54.4579 310.3033 0002534  10.1681 349.9051  1.86229251 50371
BEIDOU-2 IGSO-7 (C16)   
1 43539U 18057A   25239.77347591 -.00000130  00000+0  00000+0 0  9992
2 43539  55.1707 165.6085 0092451 236.8855 323.2714  1.00289947 26189
BEIDOU-3 M5 (C23)       
1 43581U 18062A   25240.46605470  .00000037  00000+0  00000+0 0  9991
2 43581  54.0976 192.2566 0004810 294.2626  65.6626  1.86228857 48188
BEIDOU-3 M6 (C24)       
1 43582U 18062B   25240.32974263  .00000037  00000+0  00000+0 0  9996
2 43582  54.0972 192.2504 0005511  14.1328 345.8574  1.86229906 48185
BEIDOU-3 M12 (C26)      
1 43602U 18067A   25240.26635498  .00000036  00000+0  00000+0 0  9990
2 43602  54.1909 190.9739 0007895  27.9649 332.0530  1.86227747 47662
BEIDOU-3 M11 (C25)      
1 43603U 18067B   25240.40059294  .00000036  00000+0  00000+0 0  9991
2 43603  54.1881 190.9336 0004586  13.9011 346.0877  1.86227268 47697
BEIDOU-3 M13 (C32)      
1 43622U 18072A   25239.82148613 -.00000037  00000+0  00000+0 0  9998
2 43622  56.3636  72.3584 0004438 325.1772  34.8516  1.86231399 47193
BEIDOU-3 M14 (C33)      
1 43623U 18072B   25239.15000719 -.00000037  00000+0  00000+0 0  9999
2 43623  56.3650  72.3745 0003966  15.9247 344.1472  1.86231397 47179
BEIDOU-3 M16 (C35)      
1 43647U 18078A   25240.38305571 -.00000080  00000+0  00000+0 0  9990
2 43647  54.3543 310.2398 0005855  25.3225 334.7717  1.86232430 46706
BEIDOU-3 M15 (C34)      
1 43648U 18078B   25239.97530061 -.00000081  00000+0  00000+0 0  9999
2 43648  54.3504 310.2552 0002524  38.2712 321.8126  1.86232487 46714
BEIDOU-3 G1 (C59)       
1 43683U 18085A   25241.26930149 -.00000276  00000+0  00000+0 0  9998
2 43683   2.8414 105.8905 0003970   5.4800 103.3086  1.00269273 25131
BEIDOU-3 M17 (C36)      
1 43706U 18093A   25240.92804203  .00000038  00000+0  00000+0 0  9991
2 43706  54.1809 192.2116 0009502 292.1095 241.5900  1.86228467 46099
BEIDOU-3 M18 (C37)      
1 43707U 18093B   25240.53056248  .00000038  00000+0  00000+0 0  9997
2 43707  54.1816 192.2169 0007882 321.3518  38.5675  1.86230116 46086
BEIDOU-3 IGSO-1 (C38)   
1 44204U 19023A   25240.86804757 -.00000198  00000+0  00000+0 0  9994
2 44204  58.2851  40.6680 0024932 215.4911 152.7758  1.00276472  4280
BEIDOU-2 G8 (C01)       
1 44231U 19027A   25241.27016816 -.00000244  00000+0  00000+0 0  9997
2 44231   1.3898  74.2699 0006492 271.5763 233.5675  1.00276945 23150
BEIDOU-3 IGSO-2 (C39)   
1 44337U 19035A   25240.69344347 -.00000135  00000+0  00000+0 0  9990
2 44337  55.2153 161.4352 0034988 209.1932 332.4356  1.00248570 22731
BEIDOU-3 M24 (C46)      
1 44542U 19061A   25240.06490851  .00000037  00000+0  00000+0 0  9990
2 44542  54.4088 192.6139 0008626 358.4906   1.4802  1.86229444 40333
BEIDOU-3 M23 (C45)      
1 44543U 19061B   25240.93501214  .00000039  00000+0  00000+0 0  9995
2 44543  54.4071 192.5530 0005783 342.4283 153.6892  1.86229679 40353
BEIDOU-3 IGSO-3 (C40)   
1 44709U 19073A   25239.52465809 -.00000165  00000+0  00000+0 0  9995
2 44709  55.3032 284.0720 0045714 191.1058 168.8854  1.00276787 21510
BEIDOU-3 M22 (C44)      
1 44793U 19078A   25237.75864949 -.00000082  00000+0  00000+0 0  9992
2 44793  54.2031 310.2100 0004605  34.3354 325.7622  1.86232297 39142
BEIDOU-3 M21 (C43)      
1 44794U 19078B   25238.96771486 -.00000083  00000+0  00000+0 0  9991
2 44794  54.1747 310.1349 0002642  22.3965 337.6819  1.86227906 39178
BEIDOU-3 M19 (C41)      
1 44864U 19090A   25239.47843139 -.00000037  00000+0  00000+0 0  9994
2 44864  56.2980  72.5169 0015635 288.8663 248.3670  1.86231830 38765
BEIDOU-3 M20 (C42)      
1 44865U 19090B   25240.94280034 -.00000033  00000+0  00000+0 0  9994
2 44865  56.3007  72.5025 0013194 304.4295 224.2152  1.86231779 38773
BEIDOU-3 G2 (C60)       
1 45344U 20017A   25241.11462257 -.00000139  00000+0  00000+0 0  9994
2 45344   2.8011  41.7318 0001309 335.4973  81.6368  1.00272962 20334
BEIDOU-3 G3 (C61)       
1 45807U 20040A   25241.26349480 -.00000351  00000+0  00000+0 0  9998
2 45807   1.7309  65.3674 0004327 337.6135 140.1512  1.00270829 19149
BEIDOU-3 G4 (C62)       
1 56564U 23066A   25241.20187453 -.00000108  00000+0  00000+0 0  9995
2 56564   1.0561 295.2260 0006360 204.6351  70.5111  1.00273056  8460
BEIDOU-3 M28 (C50)      
1 58654U 23207A   25240.12068096 -.00000038  00000+0  00000+0 0  9997
2 58654  55.4877  72.2087 0000912  28.5597 331.5024  1.86230040 11385
BEIDOU-3 M26 (C48)      
1 58655U 23207B   25239.91922711 -.00000039  00000+0  00000+0 0  9997
2 58655  55.4899  72.2017 0000792 256.2467 103.8018  1.86231705 11365
BEIDOU-3 M25 (C47)      
1 61186U 24168B   25240.82223071 -.00000082  00000+0  00000+0 0  9990
2 61186  54.7319 312.3910 0004510 279.3232  83.4623  1.86230383  6343
BEIDOU-3 M27 (C49)      
1 61187U 24168C   25241.15507829 -.00000080  00000+0  00000+0 0  9992
2 61187  54.7271 312.3636 0000792 314.7214  46.1221  1.86230431  3822
